     2.11           N: GPS NAV DATA                         RINEX VERSION / TYPE
teqc  2018Dec12     gpsops              20220410 01:04:01UTCPGM / RUN BY / DATE
Linux 2.6.32-573.12.1.x86_64|x86_64|gcc -static|Linux 64|=+ COMMENT
CHPI                                    MARKER NAME         COMMENT
41609M003                               MARKER NUMBER       COMMENT
4164613.9484 -4162456.9866 -2445028.7316                    COMMENT
                                                            COMMENT
This data is provided as a public service by NASA/JPL.      COMMENT
No warranty is expressed or implied regarding suitability   COMMENT
for use.  For further information, contact:                 COMMENT
Dave Stowers, NASA/JPL m/s 238-600                          COMMENT
4800 Oak Grove Drive, Pasadena CA 91109 USA                 COMMENT
                                                            END OF HEADER
 4 22  4  9 16 44 32.0-1.772693358362D-04 3.069544618484D-12 0.000000000000D+00
    6.500000000000D+01-3.184375000000D+01 4.408755070916D-09 8.317551129562D-01
   -1.600012183189D-06 1.767275738530D-03 8.696690201759D-06 5.153631179810D+03
    5.786720000000D+05 2.421438694000D-08-6.740168912347D-01 6.891787052155D-08
    9.612704645447D-01 2.130312500000D+02-2.989617198265D+00-7.826397429439D-09
    2.721541934574D-10 1.000000000000D+00 2.204000000000D+03 0.000000000000D+00
    2.000000000000D+00 0.000000000000D+00-4.190951585770D-09 3.210000000000D+02
    5.715180000000D+05 4.000000000000D+00
 9 22  4  9 16  0  0.0-3.447965718806D-04 2.387423592154D-12 0.000000000000D+00
    2.100000000000D+01-2.959375000000D+01 4.537689012961D-09 1.369019978686D+00
   -1.454725861549D-06 2.116516116075D-03 8.471310138702D-06 5.153589403152D+03
    5.760000000000D+05 4.284083843231D-08-7.273844763117D-01-8.940696716309D-08
    9.542547029615D-01 2.123437500000D+02 1.877118763703D+00-7.957831475623D-09
    3.167989102319D-10 1.000000000000D+00 2.204000000000D+03 0.000000000000D+00
    2.000000000000D+00 0.000000000000D+00 1.396983861923D-09 2.100000000000D+01
    5.723880000000D+05 4.000000000000D+00
16 22  4  9 16  0  0.0-4.899059422314D-04-3.865352482535D-12 0.000000000000D+00
    4.500000000000D+01 4.012500000000D+01 4.496258715795D-09 1.833393284852D+00
    2.047047019005D-06 1.278768433258D-02 8.324161171913D-06 5.153631101608D+03
    5.760000000000D+05-3.576278686523D-07 1.475725976790D+00-2.048909664154D-08
    9.694277440310D-01 2.279375000000D+02 7.246775468258D-01-7.935687696103D-09
   -3.382283742837D-10 1.000000000000D+00 2.204000000000D+03 0.000000000000D+00
    2.000000000000D+00 0.000000000000D+00-1.024454832077D-08 4.500000000000D+01
    5.734020000000D+05 4.000000000000D+00
21 22  4  9 15 59 44.0 1.602843403816D-04 3.410605131648D-13 0.000000000000D+00
    1.000000000000D+00-5.468750000000D+00 4.590548357622D-09 1.078815246105D+00
   -9.443610906601D-07 2.441786753479D-02 3.492459654808D-06 5.153769275665D+03
    5.759840000000D+05 4.079192876816D-07-2.882385857501D+00-3.855675458908D-07
    9.601201969286D-01 3.065625000000D+02-9.690927167729D-01-8.336418673871D-09
   -7.821754378894D-11 1.000000000000D+00 2.204000000000D+03 0.000000000000D+00
    2.000000000000D+00 0.000000000000D+00-1.024454832077D-08 1.000000000000D+00
    5.734560000000D+05 4.000000000000D+00
17 22  4  9 16  0  0.0 5.981805734336D-04 4.888534022029D-12 0.000000000000D+00
    2.700000000000D+01 4.009375000000D+01 4.090884687482D-09 8.440940603857D-01
    1.983717083931D-06 1.347088802140D-02 6.532296538353D-06 5.153789205551D+03
    5.760000000000D+05-2.142041921616D-07 2.495245011622D+00-1.154839992523D-07
    9.792956048499D-01 2.684687500000D+02-1.491084384210D+00-8.103908988909D-09
   -1.732215010851D-10 1.000000000000D+00 2.204000000000D+03 0.000000000000D+00
    2.000000000000D+00 0.000000000000D+00-1.117587089539D-08 2.700000000000D+01
    5.736360000000D+05 4.000000000000D+00
 1 22  4  9 18  0  0.0 3.888760693371D-04-8.753886504564D-12 0.000000000000D+00
    4.400000000000D+01-2.375000000000D+00 4.075526904912D-09-2.392303980949D-01
   -6.146728992462D-08 1.169596123509D-02 3.842636942863D-06 5.153666936874D+03
    5.832000000000D+05-5.029141902924D-08-2.790134414583D+00 1.564621925354D-07
    9.876201178164D-01 3.161250000000D+02 8.901479840194D-01-8.211056309168D-09
   -6.178828801592D-11 1.000000000000D+00 2.204000000000D+03 0.000000000000D+00
    2.000000000000D+00 0.000000000000D+00 5.122274160385D-09 4.400000000000D+01
    5.760180000000D+05 4.000000000000D+00
21 22  4  9 17 59 44.0 1.602866686881D-04 3.410605131648D-13 0.000000000000D+00
    1.900000000000D+01 1.146875000000D+01 4.521259757188D-09 2.128828565455D+00
    7.376074790955D-07 2.441803982947D-02 2.816319465637D-06 5.153774223328D+03
    5.831840000000D+05 2.980232238770D-07-2.882442988840D+00 8.381903171539D-08
    9.601201515781D-01 3.155312500000D+02-9.689861212471D-01-7.986404094359D-09
   -2.696540893180D-10 1.000000000000D+00 2.204000000000D+03 0.000000000000D+00
    2.000000000000D+00 0.000000000000D+00-1.024454832077D-08 1.900000000000D+01
    5.760180000000D+05 4.000000000000D+00
 4 22  4  9 18  0  0.0-1.772558316588D-04 3.069544618484D-12 0.000000000000D+00
    6.600000000000D+01-3.106250000000D+01 4.384111187257D-09 1.491990556630D+00
   -1.566484570503D-06 1.767387264408D-03 8.840113878250D-06 5.153631942749D+03
    5.832000000000D+05-2.421438694000D-08-6.740520934324D-01 2.793967723846D-08
    9.612716275646D-01 2.098437500000D+02-2.989389933941D+00-7.812111120071D-09
    2.325096849617D-10 1.000000000000D+00 2.204000000000D+03 0.000000000000D+00
    2.000000000000D+00 0.000000000000D+00-4.190951585770D-09 3.220000000000D+02
    5.760180000000D+05 4.000000000000D+00
 3 22  4  9 18  0  0.0-1.998157240450D-04-1.546140993014D-11 0.000000000000D+00
    4.600000000000D+01-8.581250000000D+01 4.108385416458D-09-1.362735303098D+00
   -4.481524229050D-06 4.023684654385D-03 6.357207894325D-06 5.153650825500D+03
    5.832000000000D+05 1.676380634308D-07-1.755769843616D+00 3.725290298462D-08
    9.729307203898D-01 2.644062500000D+02 9.414276850990D-01-7.892471610265D-09
   -7.286017777600D-11 1.000000000000D+00 2.204000000000D+03 0.000000000000D+00
    2.000000000000D+00 0.000000000000D+00 1.862645149231D-09 4.600000000000D+01
    5.760180000000D+05 4.000000000000D+00
31 22  4  9 18  0  0.0-1.726942136884D-04-1.705302565824D-12 0.000000000000D+00
    2.300000000000D+01 2.303125000000D+01 4.793771108380D-09-1.370797459262D+00
    1.015141606331D-06 1.042580022477D-02 6.904825568199D-06 5.153711172104D+03
    5.832000000000D+05 1.154839992523D-07 3.623605891787D-01-1.415610313416D-07
    9.554579779513D-01 2.363437500000D+02 3.844465135804D-01-8.001404719195D-09
    1.964367538078D-10 1.000000000000D+00 2.204000000000D+03 0.000000000000D+00
    2.000000000000D+00 0.000000000000D+00-1.350417733192D-08 2.300000000000D+01
    5.760180000000D+05 4.000000000000D+00
26 22  4  9 18  0  0.0 1.973663456738D-04 2.842170943040D-12 0.000000000000D+00
    5.900000000000D+01 4.118750000000D+01 5.173786937564D-09-2.490966147401D+00
    1.916661858559D-06 6.925052031875D-03 7.398426532745D-06 5.153729534149D+03
    5.832000000000D+05-5.587935447693D-09 1.331643965139D+00-2.272427082062D-07
    9.378728643865D-01 2.265000000000D+02 3.899546898066D-01-8.225342618536D-09
   -2.242950570751D-10 1.000000000000D+00 2.204000000000D+03 0.000000000000D+00
    2.000000000000D+00 0.000000000000D+00 6.984919309616D-09 5.900000000000D+01
    5.760180000000D+05 4.000000000000D+00
22 22  4  9 18  0  0.0 2.407478168607D-04 6.025402399246D-12 0.000000000000D+00
    2.200000000000D+01-2.959375000000D+01 4.360538776800D-09 1.810410300547D+00
   -1.553446054459D-06 1.320762594696D-02 9.072944521904D-06 5.153675828934D+03
    5.832000000000D+05-8.009374141693D-08-6.257113011472D-01-3.129243850708D-07
    9.614279798602D-01 2.035312500000D+02-1.860545165826D+00-7.809611015932D-09
    3.435857402966D-10 1.000000000000D+00 2.204000000000D+03 0.000000000000D+00
    2.000000000000D+00 0.000000000000D+00-9.778887033463D-09 2.200000000000D+01
    5.760180000000D+05 4.000000000000D+00
 9 22  4  9 18  0  0.0-3.447793424129D-04 2.387423592154D-12 0.000000000000D+00
    2.200000000000D+01-3.612500000000D+01 4.489115561111D-09 2.419696400765D+00
   -1.790001988411D-06 2.116793999448D-03 8.640810847282D-06 5.153587562561D+03
    5.832000000000D+05 1.490116119385D-08-7.274407489185D-01 6.146728992462D-08
    9.542572206435D-01 2.096875000000D+02 1.876674996281D+00-7.829611849047D-09
    2.464388365953D-10 1.000000000000D+00 2.204000000000D+03 0.000000000000D+00
    2.000000000000D+00 0.000000000000D+00 1.396983861923D-09 2.200000000000D+01
    5.760180000000D+05 4.000000000000D+00
16 22  4  9 18  0  0.0-4.899338819087D-04-3.865352482535D-12 0.000000000000D+00
    5.500000000000D+01 4.496875000000D+01 4.364467511876D-09 2.883569659588D+00
    2.162531018257D-06 1.278678106610D-02 7.754191756248D-06 5.153632787704D+03
    5.832000000000D+05-8.940696716309D-08 1.475669753923D+00-2.030283212662D-07
    9.694267785051D-01 2.350937500000D+02 7.247075542014D-01-7.659247609835D-09
   -2.928693420408D-10 1.000000000000D+00 2.204000000000D+03 0.000000000000D+00
    2.000000000000D+00 0.000000000000D+00-1.024454832077D-08 5.500000000000D+01
    5.760180000000D+05 4.000000000000D+00
17 22  4  9 18  0  0.0 5.982159636915D-04 4.888534022029D-12 0.000000000000D+00
    4.600000000000D+01 4.518750000000D+01 4.057311860468D-09 1.894322330677D+00
    2.145767211914D-06 1.347040606197D-02 6.534159183502D-06 5.153786035538D+03
    5.832000000000D+05 1.862645149231D-07 2.495187871505D+00-2.011656761169D-07
    9.792963655673D-01 2.571562500000D+02-1.491204238162D+00-7.694249067786D-09
   -1.442917246152D-10 1.000000000000D+00 2.204000000000D+03 0.000000000000D+00
    2.000000000000D+00 0.000000000000D+00-1.117587089539D-08 4.600000000000D+01
    5.760180000000D+05 4.000000000000D+00
